OBJECT_NAME,OBJECT_ID,EPOCH,MEAN_MOTION,ECCENTRICITY,INCLINATION,RA_OF_ASC_NODE,ARG_OF_PERICENTER,MEAN_ANOMALY,EPHEMERIS_TYPE,CLASSIFICATION_TYPE,NORAD_CAT_ID,ELEMENT_SET_NO,REV_AT_EPOCH,BSTAR,MEAN_MOTION_DOT,MEAN_MOTION_DDOT
STARLINK-5965,2023-083AR,2025-07-26T00:54:49.473504,15.02534670,.0001323,43.0032,220.5501,278.0954,81.9739,0,U,56915,999,11692,.42486E-4,.37E-5,0
STARLINK-5973,2023-083AS,2025-07-26T01:47:24.364320,15.02544589,.0001498,43.0026,219.9651,270.7368,89.3302,0,U,56916,999,11693,-.28598E-4,-.59E-5,0
STARLINK-5971,2023-083AT,2025-07-26T02:16:11.116704,15.02542754,.0001454,43.0021,220.1149,284.2255,75.8426,0,U,56917,999,11693,.73592E-4,.791E-5,0
STARLINK-5951,2023-083AU,2025-07-26T02:01:47.123616,15.02533603,.0001554,43.0038,220.0374,290.0929,69.9746,0,U,56918,999,11693,.25346E-4,.139E-5,0
STARLINK-5966,2023-083AV,2025-07-26T02:08:10.353408,15.02519554,.0001641,43.0024,220.0722,279.1358,80.9298,0,U,56919,999,11693,.75165E-4,.811E-5,0
STARLINK-5960,2023-083AW,2025-07-25T11:30:38.653056,15.02531446,.0001211,43.0028,223.2349,278.9875,81.0831,0,U,56920,999,11764,-.37786E-4,-.714E-5,0
STARLINK-5958,2023-083AX,2025-07-26T02:06:34.681824,15.02535398,.0001534,43.0025,220.0597,276.8819,83.1849,0,U,56921,999,11693,.8029E-5,-.95E-6,0
STARLINK-5937,2023-083AY,2025-07-25T08:00:01.980000,15.02523159,.0002531,43.0057,223.8661,277.1669,82.8886,0,U,56922,999,11762,-.92653E-4,-.1455E-4,0
STARLINK-5952,2023-083AZ,2025-07-25T11:35:26.376288,15.02536255,.0001369,43.0037,223.2636,276.6240,83.4446,0,U,56923,999,11684,-.24767E-4,-.538E-5,0
STARLINK-5731,2023-083BA,2025-07-26T03:10:20.835840,15.02517341,.0001319,43.0028,219.5351,271.5421,88.5270,0,U,56924,999,11694,.47637E-4,.44E-5,0
STARLINK-5733,2023-083BB,2025-07-26T01:37:49.897632,15.02523301,.0001811,43.0036,219.9152,283.2246,76.8394,0,U,56925,999,11693,-.17856E-4,-.445E-5,0
STARLINK-5746,2023-083BC,2025-07-26T00:06:52.579008,15.02533130,.0001398,43.0030,220.2972,278.4718,81.5966,0,U,56926,999,11692,.54277E-4,.53E-5,0
STARLINK-5808,2023-083BD,2025-07-25T19:32:11.530176,15.02532275,.0001084,43.0024,131.9915,273.0754,86.9965,0,U,56927,999,11872,.5673E-4,.563E-5,0
STARLINK-5850,2023-088B,2025-07-26T04:35:27.758400,15.02535178,.0001712,43.0028,258.6256,276.6999,83.3649,0,U,57049,999,11539,.42332E-4,.368E-5,0
STARLINK-5845,2023-088C,2025-07-26T04:09:53.486208,15.02535859,.0001507,43.0026,258.4931,275.4195,84.6476,0,U,57050,999,11539,.44038E-4,.391E-5,0
STARLINK-5839,2023-088D,2025-07-26T04:14:41.152416,15.02533830,.0001822,43.0017,258.5137,273.8063,86.2570,0,U,57051,999,11539,.27452E-4,.167E-5,0
STARLINK-5860,2023-088E,2025-07-25T10:46:28.418592,15.02533728,.000158,43.0019,262.5158,271.9796,88.0865,0,U,57052,999,11618,.23748E-4,.117E-5,0
STARLINK-5865,2023-088F,2025-07-26T03:55:30.591264,15.02531254,.0001275,43.0023,258.4171,277.2506,82.8192,0,U,57053,999,11539,.25007E-4,.134E-5,0
STARLINK-5881,2023-088G,2025-07-25T10:06:30.892896,15.02535787,.0001332,43.0031,262.3068,273.1762,86.8927,0,U,57054,999,11618,-.2887E-4,-.594E-5,0
STARLINK-6237,2023-088H,2025-07-25T10:33:41.706720,15.02531742,.0001343,43.0039,262.4468,274.3919,85.6770,0,U,57055,999,11618,.11984E-4,-.42E-6,0
STARLINK-6353,2023-088J,2025-07-25T05:20:55.854816,15.02535843,.0001323,43.0022,263.3950,276.1798,83.8894,0,U,57056,999,11615,-.20353E-5,-.231E-5,0
STARLINK-6223,2023-088K,2025-07-25T14:50:31.018848,15.02529387,.0001503,43.0037,261.1830,286.3249,73.7428,0,U,57057,999,11621,-.75821E-4,-.1228E-4,0
STARLINK-6217,2023-088L,2025-07-26T03:45:54.965088,15.02535176,.0001377,43.0028,258.3637,276.6854,83.3832,0,U,57058,999,11539,.88952E-5,-.83E-6,0
STARLINK-6211,2023-088M,2025-07-26T04:24:16.450272,15.02533420,.0001848,43.0036,258.5529,278.0747,81.9886,0,U,57059,999,11539,.39285E-4,.327E-5,0
STARLINK-6227,2023-088N,2025-07-25T10:56:04.896672,15.02538854,.0001552,43.0034,262.5545,274.2969,85.7696,0,U,57060,999,11618,-.3255E-4,-.643E-5,0
STARLINK-5869,2023-088P,2025-07-25T05:01:44.918688,15.02535848,.0001555,43.0035,263.2971,277.6089,82.4577,0,U,57061,999,11517,.10913E-4,-.56E-6,0
STARLINK-5536,2023-088Q,2025-07-25T14:33:17.156448,15.02536710,.0001548,43.0034,248.0876,276.1084,83.9582,0,U,57062,999,11636,.44903E-4,.403E-5,0
STARLINK-5832,2023-088R,2025-07-26T04:48:04.853088,15.02535923,.0001405,43.0025,257.8249,276.2493,83.8190,0,U,57063,999,11540,.7351E-4,.789E-5,0
STARLINK-5822,2023-088S,2025-07-26T04:05:05.702496,15.02534092,.00015,43.0034,258.4556,270.9147,89.1523,0,U,57064,999,11539,.3672E-4,.292E-5,0
STARLINK-5830,2023-088T,2025-07-25T12:36:34.769088,15.02537217,.000143,43.0029,262.2096,281.6260,78.4422,0,U,57065,999,11521,.71943E-5,-.106E-5,0
