STARLINK-5965           
1 56915U 23083AR  25207.03807261  .00000370  00000+0  42486-4 0  9992
2 56915  43.0032 220.5501 0001323 278.0954  81.9739 15.02534670116928
STARLINK-5973           
1 56916U 23083AS  25207.07458755 -.00000590  00000+0 -28598-4 0  9991
2 56916  43.0026 219.9651 0001498 270.7368  89.3302 15.02544589116930
STARLINK-5971           
1 56917U 23083AT  25207.09457311  .00000791  00000+0  73592-4 0  9996
2 56917  43.0021 220.1149 0001454 284.2255  75.8426 15.02542754116938
STARLINK-5951           
1 56918U 23083AU  25207.08457319  .00000139  00000+0  25346-4 0  9994
2 56918  43.0038 220.0374 0001554 290.0929  69.9746 15.02533603116932
STARLINK-5966           
1 56919U 23083AV  25207.08900872  .00000811  00000+0  75165-4 0  9993
2 56919  43.0024 220.0722 0001641 279.1358  80.9298 15.02519554116930
STARLINK-5960           
1 56920U 23083AW  25206.47961404 -.00000714  00000+0 -37786-4 0  9996
2 56920  43.0028 223.2349 0001211 278.9875  81.0831 15.02531446117648
STARLINK-5958           
1 56921U 23083AX  25207.08790141 -.00000095  00000+0  80290-5 0  9993
2 56921  43.0025 220.0597 0001534 276.8819  83.1849 15.02535398116932
STARLINK-5937           
1 56922U 23083AY  25206.33335625 -.00001455  00000+0 -92653-4 0  9990
2 56922  43.0057 223.8661 0002531 277.1669  82.8886 15.02523159117622
STARLINK-5952           
1 56923U 23083AZ  25206.48294417 -.00000538  00000+0 -24767-4 0  9992
2 56923  43.0037 223.2636 0001369 276.6240  83.4446 15.02536255116847
STARLINK-5731           
1 56924U 23083BA  25207.13218560  .00000440  00000+0  47637-4 0  9992
2 56924  43.0028 219.5351 0001319 271.5421  88.5270 15.02517341116947
STARLINK-5733           
1 56925U 23083BB  25207.06793863 -.00000445  00000+0 -17856-4 0  9996
2 56925  43.0036 219.9152 0001811 283.2246  76.8394 15.02523301116931
STARLINK-5746           
1 56926U 23083BC  25207.00477522  .00000530  00000+0  54277-4 0  9993
2 56926  43.0030 220.2972 0001398 278.4718  81.5966 15.02533130116929
STARLINK-5808           
1 56927U 23083BD  25206.81402234  .00000563  00000+0  56730-4 0  9992
2 56927  43.0024 131.9915 0001084 273.0754  86.9965 15.02532275118728
STARLINK-5850           
1 57049U 23088B   25207.19129350  .00000368  00000+0  42332-4 0  9996
2 57049  43.0028 258.6256 0001712 276.6999  83.3649 15.02535178115396
STARLINK-5845           
1 57050U 23088C   25207.17353572  .00000391  00000+0  44038-4 0  9992
2 57050  43.0026 258.4931 0001507 275.4195  84.6476 15.02535859115399
STARLINK-5839           
1 57051U 23088D   25207.17686519  .00000167  00000+0  27452-4 0  9995
2 57051  43.0017 258.5137 0001822 273.8063  86.2570 15.02533830115395
STARLINK-5860           
1 57052U 23088E   25206.44894003  .00000117  00000+0  23748-4 0  9993
2 57052  43.0019 262.5158 0001580 271.9796  88.0865 15.02533728116180
STARLINK-5865           
1 57053U 23088F   25207.16354851  .00000134  00000+0  25007-4 0  9995
2 57053  43.0023 258.4171 0001275 277.2506  82.8192 15.02531254115393
STARLINK-5881           
1 57054U 23088G   25206.42119089 -.00000594  00000+0 -28870-4 0  9999
2 57054  43.0031 262.3068 0001332 273.1762  86.8927 15.02535787116188
STARLINK-6237           
1 57055U 23088H   25206.44006605 -.00000042  00000+0  11984-4 0  9996
2 57055  43.0039 262.4468 0001343 274.3919  85.6770 15.02531742116181
STARLINK-6353           
1 57056U 23088J   25206.22286869 -.00000231  00000+0 -20353-5 0  9997
2 57056  43.0022 263.3950 0001323 276.1798  83.8894 15.02535843116153
STARLINK-6223           
1 57057U 23088K   25206.61841457 -.00001228  00000+0 -75821-4 0  9997
2 57057  43.0037 261.1830 0001503 286.3249  73.7428 15.02529387116211
STARLINK-6217           
1 57058U 23088L   25207.15688617 -.00000083  00000+0  88952-5 0  9992
2 57058  43.0028 258.3637 0001377 276.6854  83.3832 15.02535176115395
STARLINK-6211           
1 57059U 23088M   25207.18352373  .00000327  00000+0  39285-4 0  9997
2 57059  43.0036 258.5529 0001848 278.0747  81.9886 15.02533420115390
STARLINK-6227           
1 57060U 23088N   25206.45561223 -.00000643  00000+0 -32550-4 0  9995
2 57060  43.0034 262.5545 0001552 274.2969  85.7696 15.02538854116184
STARLINK-5869           
1 57061U 23088P   25206.20954767 -.00000056  00000+0  10913-4 0  9994
2 57061  43.0035 263.2971 0001555 277.6089  82.4577 15.02535848115170
STARLINK-5536           
1 57062U 23088Q   25206.60644857  .00000403  00000+0  44903-4 0  9996
2 57062  43.0034 248.0876 0001548 276.1084  83.9582 15.02536710116369
STARLINK-5832           
1 57063U 23088R   25207.20005617  .00000789  00000+0  73510-4 0  9992
2 57063  43.0025 257.8249 0001405 276.2493  83.8190 15.02535923115402
STARLINK-5822           
1 57064U 23088S   25207.17020489  .00000292  00000+0  36720-4 0  9994
2 57064  43.0034 258.4556 0001500 270.9147  89.1523 15.02534092115397
STARLINK-5830           
1 57065U 23088T   25206.52540242 -.00000106  00000+0  71943-5 0  9999
2 57065  43.0029 262.2096 0001430 281.6260  78.4422 15.02537217115213
